E-ST@R-II               
1 41459U 16025D   21361.48216121  .00012123  00000+0  56495-3 0  9995
2 41459  98.1652 149.7089 0156855 131.5027 229.9772 15.09695157311521
AAUSAT 4                
1 41460U 16025E   21361.41023978  .00015265  00000+0  66598-3 0  9991
2 41460  98.1636 154.5636 0141698 112.1084 249.5080 15.13552976311878
BEESAT-4                
1 41619U 16040W   21361.09621797  .00007364  00000+0  28021-3 0  9991
2 41619  97.2450  51.6589 0010648  19.0659 341.0976 15.26987707294392
CANX-7                  
1 41788U 16059F   21361.46476745  .00082750  00000+0  71534-2 0  9998
2 41788  98.2437 115.0404 0019822 269.7957  90.0925 14.96647781282612
RAVAN                   
1 41849U 16067B   21361.34616788  .00002505  00000+0  20900-3 0  9997
2 41849  97.9832 128.6888 0008661 192.7504 167.3501 14.99518247280199
CELTEE 1                
1 41850U 16067C   21361.31585366  .00001278  00000+0  11421-3 0  9997
2 41850  97.9769 124.4306 0008301 179.8265 180.2960 14.97730920279980
OPTICUBE 04             
1 41851U 16067D   21361.56865800  .00001563  00000+0  14008-3 0  9990
2 41851  97.9750 123.9239 0008653 181.2851 178.8350 14.97295267279984
AEROCUBE 8D             
1 41852U 16067E   21361.28706870  .00002113  00000+0  18641-3 0  9990
2 41852  97.9735 123.5523 0009618 184.9447 175.1681 14.97518089279924
AEROCUBE 8C             
1 41853U 16067F   21361.33132405  .00001368  00000+0  12263-3 0  9999
2 41853  97.9729 123.4431 0009623 189.4591 170.6450 14.97485552279923
PROMETHEUS 2-1          
1 41854U 16067G   21361.33291892  .00002408  00000+0  20828-3 0  9998
2 41854  97.9732 124.2510 0009899 188.7436 171.3615 14.98143570279967
PROMETHEUS 2-3          
1 41855U 16067H   21361.32807369  .00002241  00000+0  19408-3 0  9997
2 41855  97.9739 124.3116 0009873 188.3968 171.7090 14.98165457279965
INS-1B                  
1 41954U 17008G   21361.41498288  .00007386  00000+0  27589-3 0  9993
2 41954  97.2848  60.1724 0009916 122.9317 237.2878 15.27610801270459
BGUSAT                  
1 41999U 17008BD  21361.15588678  .00013045  00000+0  41571-3 0  9992
2 41999  97.3053  68.2003 0008288 121.5078 238.6975 15.32634453270195
DIDO-2                  
1 42000U 17008BE  21361.43753636  .00005129  00000+0  20058-3 0  9996
2 42000  97.2839  60.1321 0009034 140.0872 220.1032 15.26242171269814
PEASSS                  
1 42015U 17008BV  21361.41666633  .00006650  00000+0  24468-3 0  9999
2 42015  97.2895  63.1743 0007010 136.0290 224.1508 15.28173407270477
AL-FARABI 1             
1 42016U 17008BW  21361.41562945  .00008974  00000+0  31329-3 0  9996
2 42016  97.2954  65.4886 0006780 132.9894 227.1916 15.29795259270714
NAYIF-1 (EO-88)         
1 42017U 17008BX  21361.44131037  .00008845  00000+0  30817-3 0  9992
2 42017  97.2943  65.5198 0006825 132.2961 227.8859 15.29865003270749
UCLSAT                  
1 42765U 17036A   21361.38368251  .00006803  00000+0  26572-3 0  9991
2 42765  97.2252  44.6860 0009535 206.4096 153.6659 15.26155164251582
LITUANICASAT-2          
1 42768U 17036D   21361.36230035  .00012251  00000+0  44191-3 0  9991
2 42768  97.2336  46.1978 0012370 194.4276 165.6613 15.28588917250919
AALTO-1                 
1 42775U 17036L   21361.38458867  .00004269  00000+0  18158-3 0  9990
2 42775  97.2233  40.6156 0012346 208.0151 152.0424 15.23467368250569
URSA MAIOR              
1 42776U 17036M   21361.41476475  .00004731  00000+0  19884-3 0  9991
2 42776  97.2247  41.2314 0012116 206.7905 153.2709 15.23823198250594
COMPASS 2               
1 42777U 17036N   21361.56998532  .00009056  00000+0  33903-3 0  9994
2 42777  97.2321  46.2854 0010611 194.5075 165.5861 15.27464236250876
DIAMOND RED             
1 42783U 17036U   21361.38374648  .00005263  00000+0  21433-3 0  9998
2 42783  97.2259  43.2170 0010330 212.6540 147.4061 15.24853622250709
PEGASUS                 
1 42784U 17036V   21361.09592271  .00005823  00000+0  23174-3 0  9997
2 42784  97.2263  43.8187 0010104 210.7288 149.3360 15.25586325250714
DIAMOND GREEN           
1 42785U 17036W   21361.38322323  .00005445  00000+0  22161-3 0  9994
2 42785  97.2263  43.2716 0010222 213.1083 146.9516 15.24861543250777
DIAMOND BLUE            
1 42786U 17036X   21361.38226809  .00005383  00000+0  21913-3 0  9992
2 42786  97.2263  43.2629 0010142 213.6620 146.3975 15.24858685250770
NUDTSAT                 
1 42787U 17036Y   21361.60772215  .00011426  00000+0  41712-3 0  9999
2 42787  97.2293  47.4423 0009245 199.2167 160.8725 15.28243574250817
SUCHAI                  
1 42788U 17036Z   21361.37466804  .00007337  00000+0  28209-3 0  9990
2 42788  97.2271  45.3578 0009756 205.3160 154.7603 15.26651876250904
SKCUBE                  
1 42789U 17036AA  21361.57419792  .00006687  00000+0  26028-3 0  9991
2 42789  97.2267  45.1594 0009699 205.1598 154.9170 15.26276602250838
VZLUSAT-1               
1 42790U 17036AB  21361.41006169  .00010144  00000+0  37138-3 0  9993
2 42790  97.2301  47.2352 0009058 198.7398 161.3510 15.28182075250931
ROBUSTA-1B              
1 42792U 17036AD  21361.37814493  .00006978  00000+0  26907-3 0  9999
2 42792  97.2268  45.4321 0009257 205.7499 154.3280 15.26578061250841
CICERO 6                
1 42793U 17036AE  21361.53852122  .00004844  00000+0  19682-3 0  9991
2 42793  97.2240  43.9544 0008695 210.4118 149.6617 15.24984218250853
CORVUS BC2              
1 42846U 17042X   21361.60121841  .00000711  00000+0  74391-4 0  9990
2 42846  97.4435 223.4254 0008725 204.0279 156.0535 14.92471066242649
CORVUS BC1              
1 42847U 17042Y   21361.55936528  .00001030  00000+0  10526-3 0  9995
2 42847  97.4439 223.6602 0008393 202.8719 157.2128 14.92566854242640
MIRATA                  
1 43015U 17073C   21361.47248972  .00006347  00000+0  47679-3 0  9992
2 43015  97.6896 258.2929 0247301  25.6823 335.6431 14.81671167221787
MAKERSAT 0              
1 43016U 17073D   21361.48411574  .00004339  00000+0  33080-3 0  9994
2 43016  97.6925 258.1710 0252042  28.7184 332.7642 14.80642094221733
AEROCUBE 7B (OCSD B)    
1 43042U 17071F   21361.53518275  .00029979  00000+0  45676-3 0  9994
2 43042  51.6347 192.1709 0001897 272.5552  87.5222 15.54225957228792
AEROCUBE 7C (OCSD C)    
1 43043U 17071G   21361.53026883  .00028369  00000+0  43920-3 0  9996
2 43043  51.6336 192.8684 0001931 282.9825  77.0949 15.53814738228753
CHEFSAT                 
1 43044U 17071H   21360.84199555  .00949742  47334-3  14536-2 0  9999
2 43044  51.6148 131.5010 0009269 324.1001  35.9387 16.03736501229516
ASGARDIA 1              
1 43049U 17071N   21361.12479004  .00022324  00000+0  35548-3 0  9996
2 43049  51.6354 194.8293 0000163 271.1527  88.9445 15.53178749228692
ISARA                   
1 43050U 17071P   21361.53747852  .00161716  00000+0  99387-3 0  9992
2 43050  51.6255 145.7722 0002586 270.2853  89.7850 15.76214805229384
PROPCUBE 2 (FAUNA)      
1 43052U 17071R   21361.52070961  .00031429  00000+0  46769-3 0  9996
2 43052  51.6332 187.6992 0000385 220.4597 139.6365 15.54849403228810
CORVUS BC3              
1 43118U 18004H   21361.50888810  .00004590  00000+0  18613-3 0  9990
2 43118  97.3847  71.5713 0008267 245.9640 114.0733 15.25099820219994
MICROMAS-2A             
1 43131U 18004W   21361.21149082  .00011581  00000+0  40725-3 0  9991
2 43131  97.3950  75.9590 0006598 233.9696 126.0933 15.29492875220200
SPACEBEE-4              
1 43139U 18004AE  21361.48115480  .00018505  00000+0  58327-3 0  9993
2 43139  97.4034  79.5618 0005729 225.9511 134.1260 15.32927930220421
SPACEBEE-3              
1 43140U 18004AF  21361.50288353  .00027039  00000+0  77447-3 0  9994
2 43140  97.4075  81.8161 0005307 219.3471 140.7387 15.35883315220559
SPACEBEE-2              
1 43141U 18004AG  21361.54269556  .00029190  00000+0  80749-3 0  9992
2 43141  97.4098  82.7148 0004928 216.5811 143.5098 15.36957559220604
SPACEBEE-1              
1 43142U 18004AH  21361.46540969  .00032569  00000+0  86310-3 0  9998
2 43142  97.4111  83.5258 0004922 212.0807 148.0139 15.38265955220635
CICERO 7                
1 43143U 18004AJ  21361.44297859  .00010182  00000+0  36188-3 0  9999
2 43143  97.3924  76.1095 0004965 243.3084 116.7648 15.29190465220253
GOMX-4B                 
1 43196U 18015E   21361.36004441  .00002471  00000+0  10041-3 0  9995
2 43196  97.5089 134.7001 0016664 305.1623  54.8053 15.25428398216913
GOMX-4A                 
1 43197U 18015F   21361.61494391  .00004998  00000+0  19458-3 0  9998
2 43197  97.5086 135.4071 0016617 304.7219 115.8649 15.26343424216994
AEROCUBE 12A            
1 43556U 18046C   21361.54839672  .00010459  00000+0  32687-3 0  9996
2 43556  51.6400 297.7618 0007924 132.5372 227.6280 15.33698393192892
AEROCUBE 12B            
1 43557U 18046D   21361.53654922  .00008063  00000+0  26174-3 0  9991
2 43557  51.6397 300.6328 0008142 131.2494 228.9190 15.32818191192808
SURFSAT                 
1 43614U 18070B   21361.56162312  .00015352  00000+0  32328-3 0  9999
2 43614  93.0221  26.5511 0011910 345.7256  14.3664 15.45165322184451
CP7 (DAVE)              
1 43615U 18070C   21361.55739313  .00014922  00000+0  31878-3 0  9991
2 43615  93.0226  26.4740 0012147 345.9457  14.1460 15.44739386184434
ELFIN-B                 
1 43616U 18070D   21361.56665761  .00024635  00000+0  44362-3 0  9992
2 43616  93.0172  26.9933 0010750 340.4409  19.6437 15.49671038184628
ELFIN-A                 
1 43617U 18070E   21361.57883109  .00025467  00000+0  44597-3 0  9996
2 43617  93.0228  28.0551 0009888 337.9468  22.1366 15.50472011184651
CUBEBEL-1 (BSUSAT-1)    
1 43666U 18083E   21361.43006064  .00006423  00000+0  29758-3 0  9999
2 43666  97.4396  27.2959 0013193 210.4229 264.1784 15.20359402175327
CICERO 10               
1 43690U 18088A   21361.46030944  .00005255  00000+0  22642-3 0  9995
2 43690  85.0375  70.2325 0016228  65.5583 294.7350 15.22206012173576
